[{"OBJECT_NAME":"ASTROCAST-0402","OBJECT_ID":"2023-001DE","EPOCH":"2026-03-09T19:21:31.190400","MEAN_MOTION":15.26734153,"ECCENTRICITY":0.00042092,"INCLINATION":97.5556,"RA_OF_ASC_NODE":160.6821,"ARG_OF_PERICENTER":216.6984,"MEAN_ANOMALY":143.3966,"EPHEMERIS_TYPE":0,"CLASSIFICATION_TYPE":"U","NORAD_CAT_ID":55109,"ELEMENT_SET_NO":999,"REV_AT_EPOCH":12936,"BSTAR":0.00041835119,"MEAN_MOTION_DOT":0.0001093,"MEAN_MOTION_DDOT":0},{"OBJECT_NAME":"STARLINK-30066","OBJECT_ID":"2023-067S","EPOCH":"2026-03-09T21:23:24.849312","MEAN_MOTION":15.27575006,"ECCENTRICITY":0.00015432,"INCLINATION":43.0001,"RA_OF_ASC_NODE":269.6797,"ARG_OF_PERICENTER":272.4646,"MEAN_ANOMALY":87.6029,"EPHEMERIS_TYPE":0,"CLASSIFICATION_TYPE":"U","NORAD_CAT_ID":56704,"ELEMENT_SET_NO":999,"REV_AT_EPOCH":15573,"BSTAR":5.785909e-6,"MEAN_MOTION_DOT":-1.03e-6,"MEAN_MOTION_DDOT":0}]
